[{"OBJECT_NAME":"STARLINK-35743","OBJECT_ID":"2025-268X","EPOCH":"2026-03-08T05:00:22.608000","MEAN_MOTION":15.27542303,"ECCENTRICITY":6.245e-5,"INCLINATION":42.9997,"RA_OF_ASC_NODE":355.3917,"ARG_OF_PERICENTER":335.4914,"MEAN_ANOMALY":24.5908,"EPHEMERIS_TYPE":0,"CLASSIFICATION_TYPE":"U","NORAD_CAT_ID":66578,"ELEMENT_SET_NO":999,"REV_AT_EPOCH":1773,"BSTAR":0.0016535397,"MEAN_MOTION_DOT":0.00045468,"MEAN_MOTION_DDOT":0},{"OBJECT_NAME":"CZ-2D R\/B","OBJECT_ID":"2022-004B","EPOCH":"2026-03-09T22:50:52.634112","MEAN_MOTION":14.60339325,"ECCENTRICITY":0.04874226,"INCLINATION":98.4783,"RA_OF_ASC_NODE":157.6846,"ARG_OF_PERICENTER":297.671,"MEAN_ANOMALY":57.5829,"EPHEMERIS_TYPE":0,"CLASSIFICATION_TYPE":"U","NORAD_CAT_ID":51103,"ELEMENT_SET_NO":999,"REV_AT_EPOCH":21718,"BSTAR":0.00037005679,"MEAN_MOTION_DOT":0.00010482,"MEAN_MOTION_DDOT":0}]
